[{"OBJECT_NAME":"STARLINK-4019","OBJECT_ID":"2022-052A","EPOCH":"2025-09-19T04:45:45.647136","MEAN_MOTION":15.08844499,"ECCENTRICITY":0.00013568,"INCLINATION":53.2175,"RA_OF_ASC_NODE":333.9791,"ARG_OF_PERICENTER":82.1445,"MEAN_ANOMALY":277.9701,"EPHEMERIS_TYPE":0,"CLASSIFICATION_TYPE":"U","NORAD_CAT_ID":52598,"ELEMENT_SET_NO":999,"REV_AT_EPOCH":18569,"BSTAR":0.00014796229,"MEAN_MOTION_DOT":2.068e-5,"MEAN_MOTION_DDOT":0},{"OBJECT_NAME":"STARLINK-4024","OBJECT_ID":"2022-052B","EPOCH":"2025-09-18T12:34:02.956512","MEAN_MOTION":15.08832334,"ECCENTRICITY":0.00018251,"INCLINATION":53.217,"RA_OF_ASC_NODE":332.1208,"ARG_OF_PERICENTER":67.3409,"MEAN_ANOMALY":292.7776,"EPHEMERIS_TYPE":0,"CLASSIFICATION_TYPE":"U","NORAD_CAT_ID":52599,"ELEMENT_SET_NO":999,"REV_AT_EPOCH":18566,"BSTAR":-1.7691891e-5,"MEAN_MOTION_DOT":-5.7e-6,"MEAN_MOTION_DDOT":0},{"OBJECT_NAME":"STARLINK-4026","OBJECT_ID":"2022-052C","EPOCH":"2025-09-19T03:56:04.852320","MEAN_MOTION":15.08840673,"ECCENTRICITY":0.00012058,"INCLINATION":53.2192,"RA_OF_ASC_NODE":329.1316,"ARG_OF_PERICENTER":96.4974,"MEAN_ANOMALY":263.6155,"EPHEMERIS_TYPE":0,"CLASSIFICATION_TYPE":"U","NORAD_CAT_ID":52600,"ELEMENT_SET_NO":999,"REV_AT_EPOCH":18576,"BSTAR":6.5811639e-5,"MEAN_MOTION_DOT":7.6e-6,"MEAN_MOTION_DDOT":0},{"OBJECT_NAME":"STARLINK-4027","OBJECT_ID":"2022-052D","EPOCH":"2025-09-19T04:06:40.501440","MEAN_MOTION":15.08839807,"ECCENTRICITY":0.00013447,"INCLINATION":53.2182,"RA_OF_ASC_NODE":329.0972,"ARG_OF_PERICENTER":90.8191,"MEAN_ANOMALY":269.2956,"EPHEMERIS_TYPE":0,"CLASSIFICATION_TYPE":"U","NORAD_CAT_ID":52601,"ELEMENT_SET_NO":999,"REV_AT_EPOCH":18576,"BSTAR":4.7502578e-5,"MEAN_MOTION_DOT":4.68e-6,"MEAN_MOTION_DDOT":0},{"OBJECT_NAME":"STARLINK-4012","OBJECT_ID":"2022-052E","EPOCH":"2025-09-18T12:07:31.506528","MEAN_MOTION":15.08834909,"ECCENTRICITY":0.00013416,"INCLINATION":53.219,"RA_OF_ASC_NODE":332.0861,"ARG_OF_PERICENTER":93.4106,"MEAN_ANOMALY":266.704,"EPHEMERIS_TYPE":0,"CLASSIFICATION_TYPE":"U","NORAD_CAT_ID":52602,"ELEMENT_SET_NO":999,"REV_AT_EPOCH":18566,"BSTAR":0.00012228811,"MEAN_MOTION_DOT":1.659e-5,"MEAN_MOTION_DDOT":0},{"OBJECT_NAME":"STARLINK-4016","OBJECT_ID":"2022-052F","EPOCH":"2025-09-18T11:47:42.455040","MEAN_MOTION":15.08834916,"ECCENTRICITY":0.00012477,"INCLINATION":53.2188,"RA_OF_ASC_NODE":332.1613,"ARG_OF_PERICENTER":102.0792,"MEAN_ANOMALY":258.034,"EPHEMERIS_TYPE":0,"CLASSIFICATION_TYPE":"U","NORAD_CAT_ID":52603,"ELEMENT_SET_NO":999,"REV_AT_EPOCH":18566,"BSTAR":3.162088e-5,"MEAN_MOTION_DOT":2.15e-6,"MEAN_MOTION_DDOT":0},{"OBJECT_NAME":"STARLINK-4013","OBJECT_ID":"2022-052G","EPOCH":"2025-09-19T03:50:46.745664","MEAN_MOTION":15.08836393,"ECCENTRICITY":0.00013976,"INCLINATION":53.218,"RA_OF_ASC_NODE":329.1448,"ARG_OF_PERICENTER":95.5391,"MEAN_ANOMALY":264.576,"EPHEMERIS_TYPE":0,"CLASSIFICATION_TYPE":"U","NORAD_CAT_ID":52604,"ELEMENT_SET_NO":999,"REV_AT_EPOCH":18496,"BSTAR":2.652405e-5,"MEAN_MOTION_DOT":1.34e-6,"MEAN_MOTION_DDOT":0},{"OBJECT_NAME":"STARLINK-4000","OBJECT_ID":"2022-052H","EPOCH":"2025-09-19T05:45:23.311296","MEAN_MOTION":15.08840144,"ECCENTRICITY":8.524e-5,"INCLINATION":53.2178,"RA_OF_ASC_NODE":333.5658,"ARG_OF_PERICENTER":102.5371,"MEAN_ANOMALY":257.5716,"EPHEMERIS_TYPE":0,"CLASSIFICATION_TYPE":"U","NORAD_CAT_ID":52605,"ELEMENT_SET_NO":999,"REV_AT_EPOCH":18490,"BSTAR":4.9999447e-5,"MEAN_MOTION_DOT":5.08e-6,"MEAN_MOTION_DDOT":0},{"OBJECT_NAME":"STARLINK-3928","OBJECT_ID":"2022-052J","EPOCH":"2025-09-19T05:20:51.132192","MEAN_MOTION":15.08842237,"ECCENTRICITY":0.00013601,"INCLINATION":53.2192,"RA_OF_ASC_NODE":328.8679,"ARG_OF_PERICENTER":98.3014,"MEAN_ANOMALY":261.8132,"EPHEMERIS_TYPE":0,"CLASSIFICATION_TYPE":"U","NORAD_CAT_ID":52606,"ELEMENT_SET_NO":999,"REV_AT_EPOCH":18497,"BSTAR":-6.2650632e-5,"MEAN_MOTION_DOT":-1.285e-5,"MEAN_MOTION_DDOT":0},{"OBJECT_NAME":"STARLINK-3947","OBJECT_ID":"2022-052K","EPOCH":"2025-09-18T12:37:22.597536","MEAN_MOTION":15.08841752,"ECCENTRICITY":0.0001288,"INCLINATION":53.2191,"RA_OF_ASC_NODE":337.0057,"ARG_OF_PERICENTER":90.2694,"MEAN_ANOMALY":269.8446,"EPHEMERIS_TYPE":0,"CLASSIFICATION_TYPE":"U","NORAD_CAT_ID":52607,"ELEMENT_SET_NO":999,"REV_AT_EPOCH":18478,"BSTAR":9.7713355e-5,"MEAN_MOTION_DOT":1.268e-5,"MEAN_MOTION_DDOT":0},{"OBJECT_NAME":"STARLINK-3979","OBJECT_ID":"2022-052L","EPOCH":"2025-09-19T05:10:15.919392","MEAN_MOTION":15.0883659,"ECCENTRICITY":0.00013535,"INCLINATION":53.219,"RA_OF_ASC_NODE":328.9003,"ARG_OF_PERICENTER":98.7791,"MEAN_ANOMALY":261.3355,"EPHEMERIS_TYPE":0,"CLASSIFICATION_TYPE":"U","NORAD_CAT_ID":52608,"ELEMENT_SET_NO":999,"REV_AT_EPOCH":18497,"BSTAR":5.7454362e-5,"MEAN_MOTION_DOT":6.27e-6,"MEAN_MOTION_DDOT":0},{"OBJECT_NAME":"STARLINK-3997","OBJECT_ID":"2022-052M","EPOCH":"2025-09-18T11:25:07.102560","MEAN_MOTION":15.08833793,"ECCENTRICITY":0.00011397,"INCLINATION":53.2173,"RA_OF_ASC_NODE":332.1737,"ARG_OF_PERICENTER":89.8939,"MEAN_ANOMALY":270.2183,"EPHEMERIS_TYPE":0,"CLASSIFICATION_TYPE":"U","NORAD_CAT_ID":52609,"ELEMENT_SET_NO":999,"REV_AT_EPOCH":18486,"BSTAR":-0.0001125838,"MEAN_MOTION_DOT":-2.079e-5,"MEAN_MOTION_DDOT":0},{"OBJECT_NAME":"STARLINK-3998","OBJECT_ID":"2022-052N","EPOCH":"2025-09-19T04:35:09.199680","MEAN_MOTION":15.08836323,"ECCENTRICITY":0.00012342,"INCLINATION":53.2195,"RA_OF_ASC_NODE":334.0123,"ARG_OF_PERICENTER":103.6871,"MEAN_ANOMALY":256.4259,"EPHEMERIS_TYPE":0,"CLASSIFICATION_TYPE":"U","NORAD_CAT_ID":52610,"ELEMENT_SET_NO":999,"REV_AT_EPOCH":18489,"BSTAR":2.1504781e-5,"MEAN_MOTION_DOT":5.4e-7,"MEAN_MOTION_DDOT":0},{"OBJECT_NAME":"STARLINK-3980","OBJECT_ID":"2022-052P","EPOCH":"2025-09-19T04:24:33.735456","MEAN_MOTION":15.0883911,"ECCENTRICITY":0.00011091,"INCLINATION":53.2183,"RA_OF_ASC_NODE":334.0413,"ARG_OF_PERICENTER":92.1314,"MEAN_ANOMALY":267.9806,"EPHEMERIS_TYPE":0,"CLASSIFICATION_TYPE":"U","NORAD_CAT_ID":52611,"ELEMENT_SET_NO":999,"REV_AT_EPOCH":18489,"BSTAR":4.8622512e-5,"MEAN_MOTION_DOT":4.86e-6,"MEAN_MOTION_DDOT":0},{"OBJECT_NAME":"STARLINK-4002","OBJECT_ID":"2022-052Q","EPOCH":"2025-09-19T05:04:57.985536","MEAN_MOTION":15.08837577,"ECCENTRICITY":0.00013754,"INCLINATION":53.2172,"RA_OF_ASC_NODE":328.9157,"ARG_OF_PERICENTER":109.2654,"MEAN_ANOMALY":250.8487,"EPHEMERIS_TYPE":0,"CLASSIFICATION_TYPE":"U","NORAD_CAT_ID":52612,"ELEMENT_SET_NO":999,"REV_AT_EPOCH":18497,"BSTAR":8.958836e-6,"MEAN_MOTION_DOT":-1.45e-6,"MEAN_MOTION_DDOT":0},{"OBJECT_NAME":"STARLINK-3982","OBJECT_ID":"2022-052S","EPOCH":"2025-09-19T06:00:02.000160","MEAN_MOTION":15.20604664,"ECCENTRICITY":0.00019288,"INCLINATION":53.2167,"RA_OF_ASC_NODE":318.2379,"ARG_OF_PERICENTER":94.3911,"MEAN_ANOMALY":94.0267,"EPHEMERIS_TYPE":0,"CLASSIFICATION_TYPE":"U","NORAD_CAT_ID":52614,"ELEMENT_SET_NO":999,"REV_AT_EPOCH":575,"BSTAR":0.056899649,"MEAN_MOTION_DOT":0.01373456,"MEAN_MOTION_DDOT":0}]
