STARLINK-4019           
1 52598U 22052A   25262.19844499  .00002068  00000+0  14796-3 0  9990
2 52598  53.2175 333.9791 0001356  82.1445 277.9701 15.08844499185692
STARLINK-4024           
1 52599U 22052B   25261.52364533 -.00000570  00000+0 -17692-4 0  9990
2 52599  53.2170 332.1208 0001825  67.3409 292.7776 15.08832334185667
STARLINK-4026           
1 52600U 22052C   25262.16394505  .00000760  00000+0  65812-4 0  9992
2 52600  53.2192 329.1316 0001205  96.4974 263.6155 15.08840673185766
STARLINK-4027           
1 52601U 22052D   25262.17130210  .00000468  00000+0  47503-4 0  9997
2 52601  53.2182 329.0972 0001344  90.8191 269.2956 15.08839807185764
STARLINK-4012           
1 52602U 22052E   25261.50522577  .00001659  00000+0  12229-3 0  9994
2 52602  53.2190 332.0861 0001341  93.4106 266.7040 15.08834909185660
STARLINK-4016           
1 52603U 22052F   25261.49146360  .00000215  00000+0  31621-4 0  9990
2 52603  53.2188 332.1613 0001247 102.0792 258.0340 15.08834916185662
STARLINK-4013           
1 52604U 22052G   25262.16026326  .00000134  00000+0  26524-4 0  9991
2 52604  53.2180 329.1448 0001397  95.5391 264.5760 15.08836393184965
STARLINK-4000           
1 52605U 22052H   25262.23985314  .00000508  00000+0  49999-4 0  9997
2 52605  53.2178 333.5658 0000852 102.5371 257.5716 15.08840144184903
STARLINK-3928           
1 52606U 22052J   25262.22281403 -.00001285  00000+0 -62651-4 0  9990
2 52606  53.2192 328.8679 0001360  98.3014 261.8132 15.08842237184973
STARLINK-3947           
1 52607U 22052K   25261.52595599  .00001268  00000+0  97713-4 0  9993
2 52607  53.2191 337.0057 0001288  90.2694 269.8446 15.08841752184785
STARLINK-3979           
1 52608U 22052L   25262.21546203  .00000627  00000+0  57454-4 0  9995
2 52608  53.2190 328.9003 0001353  98.7791 261.3355 15.08836590184970
STARLINK-3997           
1 52609U 22052M   25261.47577665 -.00002079  00000+0 -11258-3 0  9995
2 52609  53.2173 332.1737 0001139  89.8939 270.2183 15.08833793184868
STARLINK-3998           
1 52610U 22052N   25262.19107870  .00000054  00000+0  21505-4 0  9990
2 52610  53.2195 334.0123 0001234 103.6871 256.4259 15.08836323184895
STARLINK-3980           
1 52611U 22052P   25262.18372379  .00000486  00000+0  48623-4 0  9997
2 52611  53.2183 334.0413 0001109  92.1314 267.9806 15.08839110184892
STARLINK-4002           
1 52612U 22052Q   25262.21178224 -.00000145  00000+0  89588-5 0  9994
2 52612  53.2172 328.9157 0001375 109.2654 250.8487 15.08837577184970
STARLINK-3982           
1 52614U 22052S   25262.25002315  .01373456  00000+0  56900-1 0  9993
2 52614  53.2167 318.2379 0001928  94.3911  94.0267 15.20604664  5753
